STARLINK-3057           
1 49139U 21082K   26068.88039440  .00000116  00000+0  17535-4 0  9999
2 49139  69.9986 253.9616 0002672 269.0716  91.0136 14.98332376246991
SHIYAN-24C 01           
1 58650U 23206A   26068.89348774  .00002076  00000+0  18089-3 0  9992
2 58650  97.3976  41.7846 0003675 132.3262 227.8273 14.97903598120444
